[{"OBJECT_NAME":"STARLINK-32326","OBJECT_ID":"2024-193P","EPOCH":"2026-03-09T18:48:13.645728","MEAN_MOTION":15.30191531,"ECCENTRICITY":0.00010955,"INCLINATION":53.1599,"RA_OF_ASC_NODE":90.3811,"ARG_OF_PERICENTER":96.0061,"MEAN_ANOMALY":264.1064,"EPHEMERIS_TYPE":0,"CLASSIFICATION_TYPE":"U","NORAD_CAT_ID":61674,"ELEMENT_SET_NO":999,"REV_AT_EPOCH":7654,"BSTAR":2.7216775e-5,"MEAN_MOTION_DOT":4.47e-6,"MEAN_MOTION_DDOT":0},{"OBJECT_NAME":"OV1-2","OBJECT_ID":"1965-078A","EPOCH":"2026-03-09T03:01:50.580768","MEAN_MOTION":13.00501958,"ECCENTRICITY":0.1131046,"INCLINATION":144.2289,"RA_OF_ASC_NODE":293.9642,"ARG_OF_PERICENTER":92.8937,"MEAN_ANOMALY":280.1442,"EPHEMERIS_TYPE":0,"CLASSIFICATION_TYPE":"U","NORAD_CAT_ID":1613,"ELEMENT_SET_NO":999,"REV_AT_EPOCH":70168,"BSTAR":0.00044752779,"MEAN_MOTION_DOT":4.816e-5,"MEAN_MOTION_DDOT":0}]
